CCSDS_OMM_VERS = 2.0
CREATION_DATE  = 
ORIGINATOR     = 

OBJECT_NAME    = ATLAS CENTAUR 2
OBJECT_ID      = 1963-047A
CENTER_NAME    = EARTH
REF_FRAME      = TEME
TIME_SYSTEM    = UTC
MEAN_ELEMENT_THEORY = SGP/SGP4

EPOCH          = 2026-01-25T11:48:13.209120
MEAN_MOTION    = 14.11942457
ECCENTRICITY   = .05481742
INCLINATION    = 30.3531
RA_OF_ASC_NODE = 77.0287
ARG_OF_PERICENTER = 59.6392
MEAN_ANOMALY   = 305.7255

EPHEMERIS_TYPE = 0
CLASSIFICATION_TYPE = U
NORAD_CAT_ID   = 694
ELEMENT_SET_NO = 999
REV_AT_EPOCH   = 12551
BSTAR          = .24649321E-3
MEAN_MOTION_DOT = .2091E-4
MEAN_MOTION_DDOT = 0

CCSDS_OMM_VERS = 2.0
CREATION_DATE  = 
ORIGINATOR     = 

OBJECT_NAME    = THOR AGENA D R/B
OBJECT_ID      = 1964-002A
CENTER_NAME    = EARTH
REF_FRAME      = TEME
TIME_SYSTEM    = UTC
MEAN_ELEMENT_THEORY = SGP/SGP4

EPOCH          = 2026-01-25T11:19:12.685440
MEAN_MOTION    = 14.33990259
ECCENTRICITY   = .00333406
INCLINATION    = 99.1227
RA_OF_ASC_NODE = 36.4576
ARG_OF_PERICENTER = 25.9134
MEAN_ANOMALY   = 334.3710

EPHEMERIS_TYPE = 0
CLASSIFICATION_TYPE = U
NORAD_CAT_ID   = 733
ELEMENT_SET_NO = 999
REV_AT_EPOCH   = 23210
BSTAR          = .15335978E-3
MEAN_MOTION_DOT = .382E-5
MEAN_MOTION_DDOT = 0

CCSDS_OMM_VERS = 2.0
CREATION_DATE  = 
ORIGINATOR     = 

OBJECT_NAME    = SL-3 R/B
OBJECT_ID      = 1964-053B
CENTER_NAME    = EARTH
REF_FRAME      = TEME
TIME_SYSTEM    = UTC
MEAN_ELEMENT_THEORY = SGP/SGP4

EPOCH          = 2026-01-25T12:13:21.468000
MEAN_MOTION    = 14.61320199
ECCENTRICITY   = .00773746
INCLINATION    = 65.0770
RA_OF_ASC_NODE = 97.8291
ARG_OF_PERICENTER = 305.9752
MEAN_ANOMALY   = 53.4189

EPHEMERIS_TYPE = 0
CLASSIFICATION_TYPE = U
NORAD_CAT_ID   = 877
ELEMENT_SET_NO = 999
REV_AT_EPOCH   = 26048
BSTAR          = .14030621E-3
MEAN_MOTION_DOT = .599E-5
MEAN_MOTION_DDOT = 0

CCSDS_OMM_VERS = 2.0
CREATION_DATE  = 
ORIGINATOR     = 

OBJECT_NAME    = SL-8 R/B
OBJECT_ID      = 1967-045B
CENTER_NAME    = EARTH
REF_FRAME      = TEME
TIME_SYSTEM    = UTC
MEAN_ELEMENT_THEORY = SGP/SGP4

EPOCH          = 2026-01-25T12:44:08.398464
MEAN_MOTION    = 14.45582593
ECCENTRICITY   = .0062838
INCLINATION    = 74.0101
RA_OF_ASC_NODE = 68.6909
ARG_OF_PERICENTER = 86.2729
MEAN_ANOMALY   = 274.5611

EPHEMERIS_TYPE = 0
CLASSIFICATION_TYPE = U
NORAD_CAT_ID   = 2802
ELEMENT_SET_NO = 999
REV_AT_EPOCH   = 8278
BSTAR          = .13014024E-3
MEAN_MOTION_DOT = .443E-5
MEAN_MOTION_DDOT = 0

CCSDS_OMM_VERS = 2.0
CREATION_DATE  = 
ORIGINATOR     = 

OBJECT_NAME    = SL-8 R/B
OBJECT_ID      = 1968-040B
CENTER_NAME    = EARTH
REF_FRAME      = TEME
TIME_SYSTEM    = UTC
MEAN_ELEMENT_THEORY = SGP/SGP4

EPOCH          = 2026-01-25T10:43:22.563552
MEAN_MOTION    = 15.02897870
ECCENTRICITY   = .00260103
INCLINATION    = 74.0310
RA_OF_ASC_NODE = 42.0278
ARG_OF_PERICENTER = 237.4013
MEAN_ANOMALY   = 122.4664

EPHEMERIS_TYPE = 0
CLASSIFICATION_TYPE = U
NORAD_CAT_ID   = 3230
ELEMENT_SET_NO = 999
REV_AT_EPOCH   = 8351
BSTAR          = .42485845E-3
MEAN_MOTION_DOT = .5705E-4
MEAN_MOTION_DDOT = 0

CCSDS_OMM_VERS = 2.0
CREATION_DATE  = 
ORIGINATOR     = 

OBJECT_NAME    = OAO 2
OBJECT_ID      = 1968-110A
CENTER_NAME    = EARTH
REF_FRAME      = TEME
TIME_SYSTEM    = UTC
MEAN_ELEMENT_THEORY = SGP/SGP4

EPOCH          = 2026-01-25T14:18:52.055712
MEAN_MOTION    = 14.47277484
ECCENTRICITY   = .00058254
INCLINATION    = 34.9926
RA_OF_ASC_NODE = 145.8162
ARG_OF_PERICENTER = 218.0197
MEAN_ANOMALY   = 142.0083

EPHEMERIS_TYPE = 0
CLASSIFICATION_TYPE = U
NORAD_CAT_ID   = 3597
ELEMENT_SET_NO = 999
REV_AT_EPOCH   = 1285
BSTAR          = .14793174E-3
MEAN_MOTION_DOT = .53E-5
MEAN_MOTION_DDOT = 0

CCSDS_OMM_VERS = 2.0
CREATION_DATE  = 
ORIGINATOR     = 

OBJECT_NAME    = ISIS 1
OBJECT_ID      = 1969-009A
CENTER_NAME    = EARTH
REF_FRAME      = TEME
TIME_SYSTEM    = UTC
MEAN_ELEMENT_THEORY = SGP/SGP4

EPOCH          = 2026-01-24T19:34:16.775616
MEAN_MOTION    = 11.30387674
ECCENTRICITY   = .17078526
INCLINATION    = 88.4537
RA_OF_ASC_NODE = 160.0896
ARG_OF_PERICENTER = 177.6918
MEAN_ANOMALY   = 183.3450

EPHEMERIS_TYPE = 0
CLASSIFICATION_TYPE = U
NORAD_CAT_ID   = 3669
ELEMENT_SET_NO = 999
REV_AT_EPOCH   = 34357
BSTAR          = .43298979E-3
MEAN_MOTION_DOT = .617E-5
MEAN_MOTION_DDOT = 0

CCSDS_OMM_VERS = 2.0
CREATION_DATE  = 
ORIGINATOR     = 

OBJECT_NAME    = SERT 2
OBJECT_ID      = 1970-009A
CENTER_NAME    = EARTH
REF_FRAME      = TEME
TIME_SYSTEM    = UTC
MEAN_ELEMENT_THEORY = SGP/SGP4

EPOCH          = 2026-01-25T15:27:12.426912
MEAN_MOTION    = 13.58724952
ECCENTRICITY   = .00040323
INCLINATION    = 99.2706
RA_OF_ASC_NODE = 331.1059
ARG_OF_PERICENTER = 278.3835
MEAN_ANOMALY   = 254.5300

EPHEMERIS_TYPE = 0
CLASSIFICATION_TYPE = U
NORAD_CAT_ID   = 4327
ELEMENT_SET_NO = 999
REV_AT_EPOCH   = 77404
BSTAR          = .1640552E-3
MEAN_MOTION_DOT = .79E-6
MEAN_MOTION_DDOT = 0

CCSDS_OMM_VERS = 2.0
CREATION_DATE  = 
ORIGINATOR     = 

OBJECT_NAME    = SL-3 R/B
OBJECT_ID      = 1971-028B
CENTER_NAME    = EARTH
REF_FRAME      = TEME
TIME_SYSTEM    = UTC
MEAN_ELEMENT_THEORY = SGP/SGP4

EPOCH          = 2026-01-25T14:21:50.083776
MEAN_MOTION    = 15.57721314
ECCENTRICITY   = .00179515
INCLINATION    = 81.2365
RA_OF_ASC_NODE = 105.1167
ARG_OF_PERICENTER = 84.5159
MEAN_ANOMALY   = 275.8139

EPHEMERIS_TYPE = 0
CLASSIFICATION_TYPE = U
NORAD_CAT_ID   = 5118
ELEMENT_SET_NO = 999
REV_AT_EPOCH   = 98195
BSTAR          = .63948814E-3
MEAN_MOTION_DOT = .4798E-3
MEAN_MOTION_DDOT = 0

CCSDS_OMM_VERS = 2.0
CREATION_DATE  = 
ORIGINATOR     = 

OBJECT_NAME    = ASTEX 1
OBJECT_ID      = 1971-089A
CENTER_NAME    = EARTH
REF_FRAME      = TEME
TIME_SYSTEM    = UTC
MEAN_ELEMENT_THEORY = SGP/SGP4

EPOCH          = 2026-01-25T07:10:43.034880
MEAN_MOTION    = 14.50711221
ECCENTRICITY   = .001398
INCLINATION    = 92.7157
RA_OF_ASC_NODE = 137.7186
ARG_OF_PERICENTER = 225.3656
MEAN_ANOMALY   = 134.6411

EPHEMERIS_TYPE = 0
CLASSIFICATION_TYPE = U
NORAD_CAT_ID   = 5560
ELEMENT_SET_NO = 999
REV_AT_EPOCH   = 85601
BSTAR          = .28553E-3
MEAN_MOTION_DOT = .1122E-4
MEAN_MOTION_DDOT = 0

CCSDS_OMM_VERS = 2.0
CREATION_DATE  = 
ORIGINATOR     = 

OBJECT_NAME    = SL-8 R/B
OBJECT_ID      = 1971-119B
CENTER_NAME    = EARTH
REF_FRAME      = TEME
TIME_SYSTEM    = UTC
MEAN_ELEMENT_THEORY = SGP/SGP4

EPOCH          = 2026-01-25T13:38:47.389920
MEAN_MOTION    = 14.36674256
ECCENTRICITY   = .05553837
INCLINATION    = 73.8861
RA_OF_ASC_NODE = 256.2506
ARG_OF_PERICENTER = 231.6922
MEAN_ANOMALY   = 123.3055

EPHEMERIS_TYPE = 0
CLASSIFICATION_TYPE = U
NORAD_CAT_ID   = 5730
ELEMENT_SET_NO = 999
REV_AT_EPOCH   = 64929
BSTAR          = .44286051E-3
MEAN_MOTION_DOT = .8514E-4
MEAN_MOTION_DDOT = 0

CCSDS_OMM_VERS = 2.0
CREATION_DATE  = 
ORIGINATOR     = 

OBJECT_NAME    = OAO 3 (COPERNICUS)
OBJECT_ID      = 1972-065A
CENTER_NAME    = EARTH
REF_FRAME      = TEME
TIME_SYSTEM    = UTC
MEAN_ELEMENT_THEORY = SGP/SGP4

EPOCH          = 2026-01-25T12:18:08.094816
MEAN_MOTION    = 14.59954789
ECCENTRICITY   = .0006418
INCLINATION    = 35.0040
RA_OF_ASC_NODE = 183.3040
ARG_OF_PERICENTER = 173.5386
MEAN_ANOMALY   = 234.7757

EPHEMERIS_TYPE = 0
CLASSIFICATION_TYPE = U
NORAD_CAT_ID   = 6153
ELEMENT_SET_NO = 999
REV_AT_EPOCH   = 83988
BSTAR          = .15275625E-3
MEAN_MOTION_DOT = .723E-5
MEAN_MOTION_DDOT = 0

